{"type": "FeatureCollection", "features": [ {"type": "Feature", "properties": {"norad_id": 31674, "name": "FENGYUN 1C DEB", "group": "fengyun-1c-debris", "lat": 69.21661303306198, "lon": -128.15464363997606, "alt_km": 728.9848847605417, "timestamp": "2025-12-16T19:34:24.551415+00:00", "meta": {"OBJECT_NAME": "FENGYUN 1C DEB", "OBJECT_ID": "1999-025CCG", "EPOCH": "2025-12-13T08:22:41.288736", "MEAN_MOTION": 14.51898371, "ECCENTRICITY": 0.00245296, "INCLINATION": 98.9271, "RA_OF_ASC_NODE": 23.6977, "ARG_OF_PERICENTER": 283.0271, "MEAN_ANOMALY": 76.8184, "EPHEMERIS_TYPE": 0, "CLASSIFICATION_TYPE": "U", "NORAD_CAT_ID": 31674, "ELEMENT_SET_NO": 999, "REV_AT_EPOCH": 64623, "BSTAR": 0.0046279629, "MEAN_MOTION_DOT": 0.00018727, "MEAN_MOTION_DDOT": 0}, "tle": {"line1": "1 31674U 99025CCG 25347.34908899  .00018727  00000+0  46280-2 0  9993", "line2": "2 31674  98.9271  23.6977 0024529 283.0271  76.8184 14.51898371646230"}}, "geometry": {"type": "Point", "coordinates": [-128.15464363997606, 69.21661303306198]}}, {"type": "Feature", "properties": {"norad_id": 31678, "name": "FENGYUN 1C DEB", "group": "fengyun-1c-debris", "lat": 81.1113938547782, "lon": 18.12379975752674, "alt_km": 650.5132404345431, "timestamp": "2025-12-16T19:34:24.551425+00:00", "meta": {"OBJECT_NAME": "FENGYUN 1C DEB", "OBJECT_ID": "1999-025CCL", "EPOCH": "2025-12-15T13:26:22.402464", "MEAN_MOTION": 14.5321738, "ECCENTRICITY": 0.02588634, "INCLINATION": 98.7994, "RA_OF_ASC_NODE": 98.882, "ARG_OF_PERICENTER": 19.3116, "MEAN_ANOMALY": 341.7672, "EPHEMERIS_TYPE": 0, "CLASSIFICATION_TYPE": "U", "NORAD_CAT_ID": 31678, "ELEMENT_SET_NO": 999, "REV_AT_EPOCH": 96880, "BSTAR": 0.00049314294, "MEAN_MOTION_DOT": 3.125e-05, "MEAN_MOTION_DDOT": 0}, "tle": {"line1": "1 31678U 99025CCL 25349.55998151  .00003125  00000+0  49314-3 0  9990", "line2": "2 31678  98.7994  98.8820 0258863  19.3116 341.7672 14.53217380968806"}}, "geometry": {"type": "Point", "coordinates": [18.12379975752674, 81.1113938547782]}}, {"type": "Feature", "properties": {"norad_id": 31680, "name": "FENGYUN 1C DEB", "group": "fengyun-1c-debris", "lat": -9.527502843632112, "lon": 101.26585564177496, "alt_km": 481.95189780059354, "timestamp": "2025-12-16T19:34:24.551435+00:00", "meta": {"OBJECT_NAME": "FENGYUN 1C DEB", "OBJECT_ID": "1999-025CCN", "EPOCH": "2025-12-15T02:39:16.157952", "MEAN_MOTION": 15.24266058, "ECCENTRICITY": 0.00751382, "INCLINATION": 99.8366, "RA_OF_ASC_NODE": 97.3639, "ARG_OF_PERICENTER": 282.5193, "MEAN_ANOMALY": 76.7638, "EPHEMERIS_TYPE": 0, "CLASSIFICATION_TYPE": "U", "NORAD_CAT_ID": 31680, "ELEMENT_SET_NO": 999, "REV_AT_EPOCH": 208, "BSTAR": 0.00079471196, "MEAN_MOTION_DOT": 0.00020946, "MEAN_MOTION_DDOT": 0}, "tle": {"line1": "1 31680U 99025CCN 25349.11060368  .00020946  00000+0  79471-3 0  9992", "line2": "2 31680  99.8366  97.3639 0075138 282.5193  76.7638 15.24266058  2088"}}, "geometry": {"type": "Point", "coordinates": [101.26585564177496, -9.527502843632112]}}, {"type": "Feature", "properties": {"norad_id": 31685, "name": "FENGYUN 1C DEB", "group": "fengyun-1c-debris", "lat": -75.68738983685907, "lon": 51.949367716058205, "alt_km": 863.3939037206774, "timestamp": "2025-12-16T19:34:24.551445+00:00", "meta": {"OBJECT_NAME": "FENGYUN 1C DEB", "OBJECT_ID": "1999-025CCT", "EPOCH": "2025-12-15T08:10:22.598976", "MEAN_MOTION": 14.09659359, "ECCENTRICITY": 0.0016018, "INCLINATION": 98.7309, "RA_OF_ASC_NODE": 13.4828, "ARG_OF_PERICENTER": 218.0152, "MEAN_ANOMALY": 141.9889, "EPHEMERIS_TYPE": 0, "CLASSIFICATION_TYPE": "U", "NORAD_CAT_ID": 31685, "ELEMENT_SET_NO": 999, "REV_AT_EPOCH": 95126, "BSTAR": 0.00010958663, "MEAN_MOTION_DOT": 1.5e-06, "MEAN_MOTION_DDOT": 0}, "tle": {"line1": "1 31685U 99025CCT 25349.34053934  .00000150  00000+0  10959-3 0  9994", "line2": "2 31685  98.7309  13.4828 0016018 218.0152 141.9889 14.09659359951266"}}, "geometry": {"type": "Point", "coordinates": [51.949367716058205, -75.68738983685907]}}, {"type": "Feature", "properties": {"norad_id": 31686, "name": "FENGYUN 1C DEB", "group": "fengyun-1c-debris", "lat": -63.78527369902208, "lon": -134.50676962082167, "alt_km": 856.3880767042256, "timestamp": "2025-12-16T19:34:24.551455+00:00", "meta": {"OBJECT_NAME": "FENGYUN 1C DEB", "OBJECT_ID": "1999-025CCU", "EPOCH": "2025-12-15T11:29:17.235744", "MEAN_MOTION": 14.72154688, "ECCENTRICITY": 0.02834015, "INCLINATION": 98.1523, "RA_OF_ASC_NODE": 61.0769, "ARG_OF_PERICENTER": 80.7699, "MEAN_ANOMALY": 282.5442, "EPHEMERIS_TYPE": 0, "CLASSIFICATION_TYPE": "U", "NORAD_CAT_ID": 31686, "ELEMENT_SET_NO": 999, "REV_AT_EPOCH": 97859, "BSTAR": 0.00047059205, "MEAN_MOTION_DOT": 5.561e-05, "MEAN_MOTION_DDOT": 0}, "tle": {"line1": "1 31686U 99025CCU 25349.47867171  .00005561  00000+0  47059-3 0  9997", "line2": "2 31686  98.1523  61.0769 0283401  80.7699 282.5442 14.72154688978591"}}, "geometry": {"type": "Point", "coordinates": [-134.50676962082167, -63.78527369902208]}}, {"type": "Feature", "properties": {"norad_id": 31688, "name": "FENGYUN 1C DEB", "group": "fengyun-1c-debris", "lat": -59.24278706817634, "lon": 60.205473810856354, "alt_km": 946.8775090272584, "timestamp": "2025-12-16T19:34:24.551465+00:00", "meta": {"OBJECT_NAME": "FENGYUN 1C DEB", "OBJECT_ID": "1999-025CCW", "EPOCH": "2025-12-15T02:46:02.938656", "MEAN_MOTION": 14.02315664, "ECCENTRICITY": 0.00755867, "INCLINATION": 98.9645, "RA_OF_ASC_NODE": 43.1518, "ARG_OF_PERICENTER": 134.664, "MEAN_ANOMALY": 226.072, "EPHEMERIS_TYPE": 0, "CLASSIFICATION_TYPE": "U", "NORAD_CAT_ID": 31688, "ELEMENT_SET_NO": 999, "REV_AT_EPOCH": 95311, "BSTAR": -3.3770767e-05, "MEAN_MOTION_DOT": -9.6e-07, "MEAN_MOTION_DDOT": 0}, "tle": {"line1": "1 31688U 99025CCW 25349.11531179 -.00000096  00000+0 -33771-4 0  9993", "line2": "2 31688  98.9645  43.1518 0075586 134.6640 226.0720 14.02315664953116"}}, "geometry": {"type": "Point", "coordinates": [60.205473810856354, -59.24278706817634]}}, {"type": "Feature", "properties": {"norad_id": 31691, "name": "FENGYUN 1C DEB", "group": "fengyun-1c-debris", "lat": 63.49373721652958, "lon": -84.42696753429085, "alt_km": 814.5998870506601, "timestamp": "2025-12-16T19:34:24.551475+00:00", "meta": {"OBJECT_NAME": "FENGYUN 1C DEB", "OBJECT_ID": "1999-025CCZ", "EPOCH": "2025-12-12T12:19:12.535392", "MEAN_MOTION": 14.26139263, "ECCENTRICITY": 0.00611137, "INCLINATION": 98.881, "RA_OF_ASC_NODE": 72.9414, "ARG_OF_PERICENTER": 239.7634, "MEAN_ANOMALY": 119.7486, "EPHEMERIS_TYPE": 0, "CLASSIFICATION_TYPE": "U", "NORAD_CAT_ID": 31691, "ELEMENT_SET_NO": 999, "REV_AT_EPOCH": 64108, "BSTAR": 0.0035356607, "MEAN_MOTION_DOT": 8.591e-05, "MEAN_MOTION_DDOT": 0}, "tle": {"line1": "1 31691U 99025CCZ 25346.51333953  .00008591  00000+0  35357-2 0  9994", "line2": "2 31691  98.8810  72.9414 0061113 239.7634 119.7486 14.26139263641081"}}, "geometry": {"type": "Point", "coordinates": [-84.42696753429085, 63.49373721652958]}}, {"type": "Feature", "properties": {"norad_id": 31692, "name": "FENGYUN 1C DEB", "group": "fengyun-1c-debris", "lat": -72.5657112480007, "lon": 18.418134567807332, "alt_km": 889.9317002145899, "timestamp": "2025-12-16T19:34:24.551486+00:00", "meta": {"OBJECT_NAME": "FENGYUN 1C DEB", "OBJECT_ID": "1999-025CDA", "EPOCH": "2025-12-13T19:07:47.653248", "MEAN_MOTION": 14.1836456, "ECCENTRICITY": 0.00879373, "INCLINATION": 99.1765, "RA_OF_ASC_NODE": 344.318, "ARG_OF_PERICENTER": 78.7556, "MEAN_ANOMALY": 282.3486, "EPHEMERIS_TYPE": 0, "CLASSIFICATION_TYPE": "U", "NORAD_CAT_ID": 31692, "ELEMENT_SET_NO": 999, "REV_AT_EPOCH": 58224, "BSTAR": 0.0032581742, "MEAN_MOTION_DOT": 6.94e-05, "MEAN_MOTION_DDOT": 0}, "tle": {"line1": "1 31692U 99025CDA 25347.79707932  .00006940  00000+0  32582-2 0  9991", "line2": "2 31692  99.1765 344.3180 0087937  78.7556 282.3486 14.18364560582247"}}, "geometry": {"type": "Point", "coordinates": [18.418134567807332, -72.5657112480007]}}, {"type": "Feature", "properties": {"norad_id": 31695, "name": "FENGYUN 1C DEB", "group": "fengyun-1c-debris", "lat": 33.67877553351945, "lon": -99.2323673613112, "alt_km": 602.5460315342034, "timestamp": "2025-12-16T19:34:24.551496+00:00", "meta": {"OBJECT_NAME": "FENGYUN 1C DEB", "OBJECT_ID": "1999-025CDD", "EPOCH": "2025-12-14T22:54:11.805120", "MEAN_MOTION": 14.73724292, "ECCENTRICITY": 0.0174905, "INCLINATION": 98.2647, "RA_OF_ASC_NODE": 73.3122, "ARG_OF_PERICENTER": 221.4768, "MEAN_ANOMALY": 137.3057, "EPHEMERIS_TYPE": 0, "CLASSIFICATION_TYPE": "U", "NORAD_CAT_ID": 31695, "ELEMENT_SET_NO": 999, "REV_AT_EPOCH": 66004, "BSTAR": 0.00098127556, "MEAN_MOTION_DOT": 8.134e-05, "MEAN_MOTION_DDOT": 0}, "tle": {"line1": "1 31695U 99025CDD 25348.95430330  .00008134  00000+0  98128-3 0  9994", "line2": "2 31695  98.2647  73.3122 0174905 221.4768 137.3057 14.73724292660049"}}, "geometry": {"type": "Point", "coordinates": [-99.2323673613112, 33.67877553351945]}}, {"type": "Feature", "properties": {"norad_id": 31714, "name": "FENGYUN 1C DEB", "group": "fengyun-1c-debris", "lat": 80.88288402614464, "lon": 169.21980989886444, "alt_km": 606.8861225048913, "timestamp": "2025-12-16T19:34:24.551507+00:00", "meta": {"OBJECT_NAME": "FENGYUN 1C DEB", "OBJECT_ID": "1999-025CDM", "EPOCH": "2025-12-15T05:07:59.174112", "MEAN_MOTION": 14.88326226, "ECCENTRICITY": 0.00178155, "INCLINATION": 99.0311, "RA_OF_ASC_NODE": 249.7375, "ARG_OF_PERICENTER": 295.9558, "MEAN_ANOMALY": 215.7728, "EPHEMERIS_TYPE": 0, "CLASSIFICATION_TYPE": "U", "NORAD_CAT_ID": 31714, "ELEMENT_SET_NO": 999, "REV_AT_EPOCH": 96086, "BSTAR": 0.003630144, "MEAN_MOTION_DOT": 0.00033769, "MEAN_MOTION_DDOT": 0}, "tle": {"line1": "1 31714U 99025CDM 25349.21387933  .00033769  00000+0  36301-2 0  9992", "line2": "2 31714  99.0311 249.7375 0017815 295.9558 215.7728 14.88326226960866"}}, "geometry": {"type": "Point", "coordinates": [169.21980989886444, 80.88288402614464]}}]}